start=new Date('2023-02-06T00:00:00.000Z').valueOf();
sats=[{"LAUNCH_DATE":"2020-03-18","SITE":"AFETR","TLE_LINE1":"1 45387U 20019AD  23036.80015986  .00000307  00000-0  39528-4 0  9991","MEAN_MOTION_DOT":"0.00000307","EPOCH":"2023-02-05T19:12:13.811904","APOAPSIS":"547.904","MEAN_MOTION":"15.06395215","PERIAPSIS":"546.552","INCLINATION":"53.0529","OBJECT_NAME":"STARLINK-1274","GP_ID":"224553928","COUNTRY_CODE":"US","RCS_SIZE":"LARGE","MEAN_ELEMENT_THEORY":"SGP4","PERIOD":"95.592","NORAD_CAT_ID":"45387","CLASSIFICATION_TYPE":"U","TLE_LINE2":"2 45387  53.0529 169.9106 0000976  90.8094 269.3006 15.06395215160007","FILE":"3774172","CENTER_NAME":"EARTH","ARG_OF_PERICENTER":"90.8094","REF_FRAME":"TEME","RA_OF_ASC_NODE":"169.9106","SEMIMAJOR_AXIS":"6925.363","OBJECT_TYPE":"PAYLOAD","BSTAR":"0.00003952800000","MEAN_MOTION_DDOT":"0.0000000000000","MEAN_ANOMALY":"269.3006","REV_AT_EPOCH":"16000","EPHEMERIS_TYPE":"0","DECAY_DATE":null,"OBJECT_ID":"2020-019AD","TIME_SYSTEM":"UTC","ECCENTRICITY":"0.00009760","ELEMENT_SET_NO":"999"},{"NORAD_CAT_ID":"45388","PERIOD":"95.592","MEAN_ELEMENT_THEORY":"SGP4","RCS_SIZE":"LARGE","CLASSIFICATION_TYPE":"U","EPOCH":"2023-02-05T20:02:39.276384","APOAPSIS":"548.046","TLE_LINE1":"1 45388U 20019AE  23036.83517681  .00000325  00000-0  40733-4 0  9994","MEAN_MOTION_DOT":"0.00000325","SITE":"AFETR","LAUNCH_DATE":"2020-03-18","COUNTRY_CODE":"US","OBJECT_NAME":"STARLINK-1280","GP_ID":"224554677","MEAN_MOTION":"15.06395173","PERIAPSIS":"546.411","INCLINATION":"53.0525","MEAN_ANOMALY":"280.5285","BSTAR":"0.00004073300000","MEAN_MOTION_DDOT":"0.0000000000000","OBJECT_TYPE":"PAYLOAD","SEMIMAJOR_AXIS":"6925.363","RA_OF_ASC_NODE":"189.7545","REF_FRAME":"TEME","ECCENTRICITY":"0.00011800","ELEMENT_SET_NO":"999","TIME_SYSTEM":"UTC","EPHEMERIS_TYPE":"0","DECAY_DATE":null,"OBJECT_ID":"2020-019AE","REV_AT_EPOCH":"15972","FILE":"3774172","CENTER_NAME":"EARTH","TLE_LINE2":"2 45388  53.0525 189.7545 0001180  79.5837 280.5285 15.06395173159722","ARG_OF_PERICENTER":"79.5837"},{"MEAN_ANOMALY":"268.1229","MEAN_MOTION_DDOT":"0.0000000000000","BSTAR":"0.00023687000000","SEMIMAJOR_AXIS":"6925.308","OBJECT_TYPE":"PAYLOAD","RA_OF_ASC_NODE":"170.1400","REF_FRAME":"TEME","ELEMENT_SET_NO":"999","ECCENTRICITY":"0.00011130","TIME_SYSTEM":"UTC","DECAY_DATE":null,"OBJECT_ID":"2020-019AF","EPHEMERIS_TYPE":"0","REV_AT_EPOCH":"16000","FILE":"3774172","CENTER_NAME":"EARTH","TLE_LINE2":"2 45389  53.0541 170.1400 0001113  91.9887 268.1229 15.06413092160008","ARG_OF_PERICENTER":"91.9887","NORAD_CAT_ID":"45389","PERIOD":"95.591","MEAN_ELEMENT_THEORY":"SGP4","RCS_SIZE":"LARGE","CLASSIFICATION_TYPE":"U","APOAPSIS":"547.944","EPOCH":"2023-02-05T17:57:54.768384","MEAN_MOTION_DOT":"0.00003250","TLE_LINE1":"1 45389U 20019AF  23036.74855056  .00003250  00000-0  23687-3 0  9994","SITE":"AFETR","LAUNCH_DATE":"2020-03-18","COUNTRY_CODE":"US","GP_ID":"224554929","OBJECT_NAME":"STARLINK-1283","INCLINATION":"53.0541","MEAN_MOTION":"15.06413092","PERIAPSIS":"546.403"},{"NORAD_CAT_ID":"45390","PERIOD":"95.592","MEAN_ELEMENT_THEORY":"SGP4","RCS_SIZE":"LARGE","CLASSIFICATION_TYPE":"U","APOAPSIS":"548.020","EPOCH":"2023-02-05T18:56:18.290112","MEAN_MOTION_DOT":"0.00000145","TLE_LINE1":"1 45390U 20019AG  23036.78910058  .00000145  00000-0  28593-4 0  9996","SITE":"AFETR","LAUNCH_DATE":"2020-03-18","COUNTRY_CODE":"US","GP_ID":"224555664","OBJECT_NAME":"STARLINK-1284","INCLINATION":"53.0533","PERIAPSIS":"546.415","MEAN_MOTION":"15.06398725","MEAN_ANOMALY":"272.7514","MEAN_MOTION_DDOT":"0.0000000000000","BSTAR":"0.00002859300000","OBJECT_TYPE":"PAYLOAD","SEMIMAJOR_AXIS":"6925.352","RA_OF_ASC_NODE":"169.9633","REF_FRAME":"TEME","ELEMENT_SET_NO":"999","ECCENTRICITY":"0.00011590","TIME_SYSTEM":"UTC","DECAY_DATE":null,"OBJECT_ID":"2020-019AG","EPHEMERIS_TYPE":"0","REV_AT_EPOCH":"16000","CENTER_NAME":"EARTH","FILE":"3774172","TLE_LINE2":"2 45390  53.0533 169.9633 0001159  87.3608 272.7514 15.06398725160008","ARG_OF_PERICENTER":"87.3608"},{"TLE_LINE1":"1 45391U 20019AH  23036.60386457  .00000393  00000-0  45292-4 0  9998","MEAN_MOTION_DOT":"0.00000393","EPOCH":"2023-02-05T14:29:33.898848","APOAPSIS":"548.006","LAUNCH_DATE":"2020-03-18","SITE":"AFETR","OBJECT_NAME":"STARLINK-1289","GP_ID":"224465500","COUNTRY_CODE":"US","PERIAPSIS":"546.488","MEAN_MOTION":"15.06389067","INCLINATION":"53.0521","PERIOD":"95.593","NORAD_CAT_ID":"45391","RCS_SIZE":"LARGE","MEAN_ELEMENT_THEORY":"SGP4","CLASSIFICATION_TYPE":"U","CENTER_NAME":"EARTH","FILE":"3773429","TLE_LINE2":"2 45391  53.0521 170.7893 0001096  95.2829 264.8285 15.06389067159708","ARG_OF_PERICENTER":"95.2829","BSTAR":"0.00004529200000","MEAN_MOTION_DDOT":"0.0000000000000","MEAN_ANOMALY":"264.8285","REF_FRAME":"TEME","RA_OF_ASC_NODE":"170.7893","SEMIMAJOR_AXIS":"6925.382","OBJECT_TYPE":"PAYLOAD","TIME_SYSTEM":"UTC","ECCENTRICITY":"0.00010960","ELEMENT_SET_NO":"999","REV_AT_EPOCH":"15970","EPHEMERIS_TYPE":"0","OBJECT_ID":"2020-019AH","DECAY_DATE":null},{"ARG_OF_PERICENTER":"70.7623","TLE_LINE2":"2 45392  52.9754 138.2974 0001449  70.7623 289.3530 15.25204356160105","FILE":"3774172","CENTER_NAME":"EARTH","EPHEMERIS_TYPE":"0","DECAY_DATE":null,"OBJECT_ID":"2020-019AJ","REV_AT_EPOCH":"16010","ECCENTRICITY":"0.00014490","ELEMENT_SET_NO":"999","TIME_SYSTEM":"UTC","SEMIMAJOR_AXIS":"6868.309","OBJECT_TYPE":"PAYLOAD","RA_OF_ASC_NODE":"138.2974","REF_FRAME":"TEME","MEAN_ANOMALY":"289.3530","BSTAR":"0.00189650000000","MEAN_MOTION_DDOT":"0.0000000000000","PERIAPSIS":"489.179","MEAN_MOTION":"15.25204356","INCLINATION":"52.9754","COUNTRY_CODE":"US","OBJECT_NAME":"STARLINK-1290","GP_ID":"224554179","SITE":"AFETR","LAUNCH_DATE":"2020-03-18","EPOCH":"2023-02-05T16:44:25.010880","APOAPSIS":"491.169","TLE_LINE1":"1 45392U 20019AJ  23036.69751170  .00048219  00000-0  18965-2 0  9990","MEAN_MOTION_DOT":"0.00048219","CLASSIFICATION_TYPE":"U","MEAN_ELEMENT_THEORY":"SGP4","RCS_SIZE":"LARGE","NORAD_CAT_ID":"45392","PERIOD":"94.414"},{"COUNTRY_CODE":"US","GP_ID":"224555429","OBJECT_NAME":"STARLINK-1291","INCLINATION":"53.0524","MEAN_MOTION":"15.06401633","PERIAPSIS":"546.247","APOAPSIS":"548.170","EPOCH":"2023-02-05T19:59:59.639424","MEAN_MOTION_DOT":"0.00000721","TLE_LINE1":"1 45393U 20019AK  23036.83332916  .00000721  00000-0  67294-4 0  9997","SITE":"AFETR","LAUNCH_DATE":"2020-03-18","CLASSIFICATION_TYPE":"U","NORAD_CAT_ID":"45393","PERIOD":"95.592","MEAN_ELEMENT_THEORY":"SGP4","RCS_SIZE":"LARGE","ARG_OF_PERICENTER":"93.9229","CENTER_NAME":"EARTH","FILE":"3774172","TLE_LINE2":"2 45393  53.0524 169.7667 0001389  93.9229 266.1919 15.06401633159774","ELEMENT_SET_NO":"999","ECCENTRICITY":"0.00013890","TIME_SYSTEM":"UTC","DECAY_DATE":null,"OBJECT_ID":"2020-019AK","EPHEMERIS_TYPE":"0","REV_AT_EPOCH":"15977","MEAN_ANOMALY":"266.1919","MEAN_MOTION_DDOT":"0.0000000000000","BSTAR":"0.00006729400000","OBJECT_TYPE":"PAYLOAD","SEMIMAJOR_AXIS":"6925.344","RA_OF_ASC_NODE":"169.7667","REF_FRAME":"TEME"},{"OBJECT_NAME":"STARLINK-1292","GP_ID":"224555166","COUNTRY_CODE":"US","MEAN_MOTION":"15.06401906","PERIAPSIS":"546.094","INCLINATION":"53.0545","TLE_LINE1":"1 45394U 20019AL  23036.79647529 -.00002395  00000-0 -14193-3 0  9992","MEAN_MOTION_DOT":"-0.00002395","EPOCH":"2023-02-05T19:06:55.465056","APOAPSIS":"548.321","LAUNCH_DATE":"2020-03-18","SITE":"AFETR","CLASSIFICATION_TYPE":"U","PERIOD":"95.592","NORAD_CAT_ID":"45394","RCS_SIZE":"LARGE","MEAN_ELEMENT_THEORY":"SGP4","ARG_OF_PERICENTER":"105.7555","CENTER_NAME":"EARTH","FILE":"3774172","TLE_LINE2":"2 45394  53.0545 169.9270 0001608 105.7555 254.3611 15.06401906159746","TIME_SYSTEM":"UTC","ECCENTRICITY":"0.00016080","ELEMENT_SET_NO":"999","REV_AT_EPOCH":"15974","EPHEMERIS_TYPE":"0","OBJECT_ID":"2020-019AL","DECAY_DATE":null,"BSTAR":"-0.00014193000000","MEAN_MOTION_DDOT":"0.0000000000000","MEAN_ANOMALY":"254.3611","RA_OF_ASC_NODE":"169.9270","REF_FRAME":"TEME","SEMIMAJOR_AXIS":"6925.343","OBJECT_TYPE":"PAYLOAD"},{"BSTAR":"0.00008235200000","MEAN_MOTION_DDOT":"0.0000000000000","MEAN_ANOMALY":"277.7177","REF_FRAME":"TEME","RA_OF_ASC_NODE":"169.7981","OBJECT_TYPE":"PAYLOAD","SEMIMAJOR_AXIS":"6925.359","TIME_SYSTEM":"UTC","ECCENTRICITY":"0.00011680","ELEMENT_SET_NO":"999","REV_AT_EPOCH":"15919","EPHEMERIS_TYPE":"0","OBJECT_ID":"2020-019AM","DECAY_DATE":null,"FILE":"3774172","CENTER_NAME":"EARTH","TLE_LINE2":"2 45395  53.0537 169.7981 0001168  82.3944 277.7177 15.06396469159190","ARG_OF_PERICENTER":"82.3944","PERIOD":"95.592","NORAD_CAT_ID":"45395","RCS_SIZE":"LARGE","MEAN_ELEMENT_THEORY":"SGP4","CLASSIFICATION_TYPE":"U","TLE_LINE1":"1 45395U 20019AM  23036.82596430  .00000945  00000-0  82352-4 0  9991","MEAN_MOTION_DOT":"0.00000945","EPOCH":"2023-02-05T19:49:23.315520","APOAPSIS":"548.033","LAUNCH_DATE":"2020-03-18","SITE":"AFETR","OBJECT_NAME":"STARLINK-1297","GP_ID":"224553929","COUNTRY_CODE":"US","PERIAPSIS":"546.415","MEAN_MOTION":"15.06396469","INCLINATION":"53.0537"},{"MEAN_ELEMENT_THEORY":"SGP4","RCS_SIZE":"LARGE","NORAD_CAT_ID":"45396","PERIOD":"95.593","CLASSIFICATION_TYPE":"U","SITE":"AFETR","LAUNCH_DATE":"2020-03-18","APOAPSIS":"548.111","EPOCH":"2023-02-05T16:11:46.591584","MEAN_MOTION_DOT":"0.00000526","TLE_LINE1":"1 45396U 20019AN  23036.67484481  .00000526  00000-0  54218-4 0  9992","INCLINATION":"53.0545","MEAN_MOTION":"15.06389118","PERIAPSIS":"546.383","COUNTRY_CODE":"US","GP_ID":"224554678","OBJECT_NAME":"STARLINK-1303","SEMIMAJOR_AXIS":"6925.382","OBJECT_TYPE":"PAYLOAD","REF_FRAME":"TEME","RA_OF_ASC_NODE":"170.4744","MEAN_ANOMALY":"264.5461","MEAN_MOTION_DDOT":"0.0000000000000","BSTAR":"0.00005421800000","DECAY_DATE":null,"OBJECT_ID":"2020-019AN","EPHEMERIS_TYPE":"0","REV_AT_EPOCH":"15970","ELEMENT_SET_NO":"999","ECCENTRICITY":"0.00012470","TIME_SYSTEM":"UTC","TLE_LINE2":"2 45396  53.0545 170.4744 0001247  95.5670 264.5461 15.06389118159706","CENTER_NAME":"EARTH","FILE":"3774172","ARG_OF_PERICENTER":"95.5670"}];
